LYNK TOWER 6            
1 59123U 24043AB  26068.89488777  .00011440  00000+0  40142-3 0  9996
2 59123  97.5426 204.1954 0009749 232.0253 128.0107 15.29548678111845
STARLINK-35935          
1 66527U 25265M   26068.57369823  .00064497  00000+0  23305-2 0  9995
2 66527  43.0066 278.7646 0001952 251.4524 108.6116 15.27613078 17097
